[{"OBJECT_NAME":"FLOCK 4G-18","OBJECT_ID":"2025-009BZ","EPOCH":"2026-03-09T04:35:14.656704","MEAN_MOTION":15.27241676,"ECCENTRICITY":0.00041001,"INCLINATION":97.4054,"RA_OF_ASC_NODE":150.5008,"ARG_OF_PERICENTER":335.7331,"MEAN_ANOMALY":24.3715,"EPHEMERIS_TYPE":0,"CLASSIFICATION_TYPE":"U","NORAD_CAT_ID":62680,"ELEMENT_SET_NO":999,"REV_AT_EPOCH":12126,"BSTAR":0.0004431856,"MEAN_MOTION_DOT":0.00011766,"MEAN_MOTION_DDOT":0},{"OBJECT_NAME":"STARLINK-32919","OBJECT_ID":"2025-043U","EPOCH":"2026-03-09T05:45:03.184416","MEAN_MOTION":15.27591813,"ECCENTRICITY":0.0001897,"INCLINATION":43.0058,"RA_OF_ASC_NODE":18.7595,"ARG_OF_PERICENTER":255.7736,"MEAN_ANOMALY":104.2905,"EPHEMERIS_TYPE":0,"CLASSIFICATION_TYPE":"U","NORAD_CAT_ID":63150,"ELEMENT_SET_NO":999,"REV_AT_EPOCH":5729,"BSTAR":0.0011255445,"MEAN_MOTION_DOT":0.00030852,"MEAN_MOTION_DDOT":0}]
